XCUBE-1                 
1 62400U 24247Z   26068.48297321  .00009773  00000+0  36224-3 0  9994
2 62400  44.9938 117.7807 0005235 331.1499  28.9094 15.27910558 67702
STARLINK-36496          
1 67329U 26002AA  26068.06517928  .00037861  00000+0  13789-2 0  9991
2 67329  43.0006 328.7667 0001739 272.1531  87.9121 15.27564785 10966
